{"fetched_at":"2026-07-18T06:27:40.892Z","source":"https://celestrak.org/NORAD/elements/gp.php?GROUP=globalstar&FORMAT=JSON","constellation":"globalstar","records":[{"OBJECT_NAME":"GLOBALSTAR M080","OBJECT_ID":"2011-080B","EPOCH":"2026-07-17T23:41:52.859904","CLASSIFICATION_TYPE":"U","MEAN_MOTION":12.62257585,"ECCENTRICITY":0.00002942,"INCLINATION":52.0066,"RA_OF_ASC_NODE":285.247,"ARG_OF_PERICENTER":77.131,"MEAN_ANOMALY":94.5763,"EPHEMERIS_TYPE":0,"NORAD_CAT_ID":38041,"ELEMENT_SET_NO":999,"REV_AT_EPOCH":67277,"BSTAR":0.00014100488,"MEAN_MOTION_DOT":-7.9e-7,"MEAN_MOTION_DDOT":0},{"OBJECT_NAME":"GLOBALSTAR M082","OBJECT_ID":"2011-080C","EPOCH":"2026-07-17T12:32:15.510336","CLASSIFICATION_TYPE":"U","MEAN_MOTION":12.62264325,"ECCENTRICITY":0.0000194,"INCLINATION":52.006,"RA_OF_ASC_NODE":242.1663,"ARG_OF_PERICENTER":76.2364,"MEAN_ANOMALY":71.348,"EPHEMERIS_TYPE":0,"NORAD_CAT_ID":38042,"ELEMENT_SET_NO":999,"REV_AT_EPOCH":67342,"BSTAR":0.000080848,"MEAN_MOTION_DOT":-8.9e-7,"MEAN_MOTION_DDOT":0},{"OBJECT_NAME":"GLOBALSTAR M092","OBJECT_ID":"2011-080D","EPOCH":"2026-07-17T19:35:50.099712","CLASSIFICATION_TYPE":"U","MEAN_MOTION":12.62267883,"ECCENTRICITY":0.00007609,"INCLINATION":52.0105,"RA_OF_ASC_NODE":331.668,"ARG_OF_PERICENTER":106.5467,"MEAN_ANOMALY":57.7424,"EPHEMERIS_TYPE":0,"NORAD_CAT_ID":38043,"ELEMENT_SET_NO":999,"REV_AT_EPOCH":67191,"BSTAR":0.00012038063,"MEAN_MOTION_DOT":-8.2e-7,"MEAN_MOTION_DDOT":0},{"OBJECT_NAME":"GLOBALSTAR M090","OBJECT_ID":"2011-080E","EPOCH":"2026-07-17T03:04:27.518592","CLASSIFICATION_TYPE":"U","MEAN_MOTION":12.62269629,"ECCENTRICITY":0.00004137,"INCLINATION":52.0103,"RA_OF_ASC_NODE":237.3317,"ARG_OF_PERICENTER":89.1139,"MEAN_ANOMALY":304.6303,"EPHEMERIS_TYPE":0,"NORAD_CAT_ID":38044,"ELEMENT_SET_NO":999,"REV_AT_EPOCH":67349,"BSTAR":0.00013632176,"MEAN_MOTION_DOT":-7.9e-7,"MEAN_MOTION_DDOT":0},{"OBJECT_NAME":"GLOBALSTAR M086","OBJECT_ID":"2011-080F","EPOCH":"2026-07-17T19:30:43.632864","CLASSIFICATION_TYPE":"U","MEAN_MOTION":12.62287873,"ECCENTRICITY":0.00014679,"INCLINATION":51.9873,"RA_OF_ASC_NODE":235.1255,"ARG_OF_PERICENTER":115.5282,"MEAN_ANOMALY":55.9605,"EPHEMERIS_TYPE":0,"NORAD_CAT_ID":38045,"ELEMENT_SET_NO":999,"REV_AT_EPOCH":67352,"BSTAR":0.000016478581,"MEAN_MOTION_DOT":-0.00000101,"MEAN_MOTION_DDOT":0},{"OBJECT_NAME":"GLOBALSTAR M097","OBJECT_ID":"2013-005A","EPOCH":"2026-07-17T21:16:15.806784","CLASSIFICATION_TYPE":"U","MEAN_MOTION":12.62271305,"ECCENTRICITY":0.00005001,"INCLINATION":52.0028,"RA_OF_ASC_NODE":149.8839,"ARG_OF_PERICENTER":43.0531,"MEAN_ANOMALY":317.0375,"EPHEMERIS_TYPE":0,"NORAD_CAT_ID":39072,"ELEMENT_SET_NO":999,"REV_AT_EPOCH":62078,"BSTAR":-0.000057589785,"MEAN_MOTION_DOT":-0.00000114,"MEAN_MOTION_DDOT":0},{"OBJECT_NAME":"GLOBALSTAR M093","OBJECT_ID":"2013-005B","EPOCH":"2026-07-17T20:37:44.197248","CLASSIFICATION_TYPE":"U","MEAN_MOTION":12.62266346,"ECCENTRICITY":0.00007222,"INCLINATION":52.0095,"RA_OF_ASC_NODE":143.3242,"ARG_OF_PERICENTER":48.8066,"MEAN_ANOMALY":311.2863,"EPHEMERIS_TYPE":0,"NORAD_CAT_ID":39073,"ELEMENT_SET_NO":999,"REV_AT_EPOCH":62073,"BSTAR":0.00002203617,"MEAN_MOTION_DOT":-0.000001,"MEAN_MOTION_DDOT":0},{"OBJECT_NAME":"GLOBALSTAR M094","OBJECT_ID":"2013-005C","EPOCH":"2026-07-17T18:43:30.387648","CLASSIFICATION_TYPE":"U","MEAN_MOTION":12.62264193,"ECCENTRICITY":0.00010216,"INCLINATION":51.9969,"RA_OF_ASC_NODE":57.6527,"ARG_OF_PERICENTER":66.6173,"MEAN_ANOMALY":293.4801,"EPHEMERIS_TYPE":0,"NORAD_CAT_ID":39074,"ELEMENT_SET_NO":999,"REV_AT_EPOCH":62233,"BSTAR":0.00005705578,"MEAN_MOTION_DOT":-9.4e-7,"MEAN_MOTION_DDOT":0},{"OBJECT_NAME":"GLOBALSTAR M096","OBJECT_ID":"2013-005D","EPOCH":"2026-07-17T20:57:00.486720","CLASSIFICATION_TYPE":"U","MEAN_MOTION":12.62265732,"ECCENTRICITY":0.00007964,"INCLINATION":52.0073,"RA_OF_ASC_NODE":106.1957,"ARG_OF_PERICENTER":47.6461,"MEAN_ANOMALY":312.4473,"EPHEMERIS_TYPE":0,"NORAD_CAT_ID":39075,"ELEMENT_SET_NO":999,"REV_AT_EPOCH":62126,"BSTAR":0.000090253673,"MEAN_MOTION_DOT":-8.8e-7,"MEAN_MOTION_DDOT":0},{"OBJECT_NAME":"GLOBALSTAR M078","OBJECT_ID":"2013-005E","EPOCH":"2026-07-17T22:12:20.955456","CLASSIFICATION_TYPE":"U","MEAN_MOTION":12.62260116,"ECCENTRICITY":0.00009015,"INCLINATION":51.9845,"RA_OF_ASC_NODE":190.0044,"ARG_OF_PERICENTER":345.8599,"MEAN_ANOMALY":14.2242,"EPHEMERIS_TYPE":0,"NORAD_CAT_ID":39076,"ELEMENT_SET_NO":999,"REV_AT_EPOCH":61989,"BSTAR":-0.00010262088,"MEAN_MOTION_DOT":-0.00000122,"MEAN_MOTION_DDOT":0},{"OBJECT_NAME":"GLOBALSTAR M095","OBJECT_ID":"2013-005F","EPOCH":"2026-07-17T22:50:45.589920","CLASSIFICATION_TYPE":"U","MEAN_MOTION":12.62264099,"ECCENTRICITY":0.00005282,"INCLINATION":52.0053,"RA_OF_ASC_NODE":187.5703,"ARG_OF_PERICENTER":17.823,"MEAN_ANOMALY":342.2655,"EPHEMERIS_TYPE":0,"NORAD_CAT_ID":39077,"ELEMENT_SET_NO":999,"REV_AT_EPOCH":61975,"BSTAR":-0.00010614424,"MEAN_MOTION_DOT":-0.00000123,"MEAN_MOTION_DDOT":0},{"OBJECT_NAME":"GLOBALSTAR M087","OBJECT_ID":"2022-064A","EPOCH":"2026-07-17T19:21:34.456320","CLASSIFICATION_TYPE":"U","MEAN_MOTION":12.6226946,"ECCENTRICITY":0.00008982,"INCLINATION":52.0016,"RA_OF_ASC_NODE":329.2338,"ARG_OF_PERICENTER":88.109,"MEAN_ANOMALY":271.9879,"EPHEMERIS_TYPE":0,"NORAD_CAT_ID":52888,"ELEMENT_SET_NO":999,"REV_AT_EPOCH":19500,"BSTAR":0.00012787718,"MEAN_MOTION_DOT":-8.1e-7,"MEAN_MOTION_DDOT":0}]}
